[{"OBJECT_NAME":"STARLINK-5534","OBJECT_ID":"2023-064AF","EPOCH":"2026-03-09T02:31:15.093984","MEAN_MOTION":14.98347696,"ECCENTRICITY":0.00034307,"INCLINATION":69.9988,"RA_OF_ASC_NODE":125.8565,"ARG_OF_PERICENTER":273.9201,"MEAN_ANOMALY":86.1566,"EPHEMERIS_TYPE":0,"CLASSIFICATION_TYPE":"U","NORAD_CAT_ID":56477,"ELEMENT_SET_NO":999,"REV_AT_EPOCH":15565,"BSTAR":-0.00036831184,"MEAN_MOTION_DOT":-4.487e-5,"MEAN_MOTION_DDOT":0},{"OBJECT_NAME":"BREEZE-M DEB","OBJECT_ID":"2006-006CZ","EPOCH":"2026-03-07T08:02:17.471616","MEAN_MOTION":5.32639231,"ECCENTRICITY":0.4985346,"INCLINATION":52.1102,"RA_OF_ASC_NODE":43.9827,"ARG_OF_PERICENTER":99.4691,"MEAN_ANOMALY":15.3627,"EPHEMERIS_TYPE":0,"CLASSIFICATION_TYPE":"U","NORAD_CAT_ID":38559,"ELEMENT_SET_NO":999,"REV_AT_EPOCH":421,"BSTAR":0.0035927,"MEAN_MOTION_DOT":1.258e-5,"MEAN_MOTION_DDOT":0}]
